STARLINK-2645
1 28444C 21040S   21325.13818671  .00004365  00000-0  29254-3 0  3255
2 28444  53.0554  27.6011 0001435  65.8638 152.6626 15.06386025    19
